TANSAT                  
1 41898U 16081A   26166.94631362  .00000156  00000+0  42967-4 0  9994
2 41898  98.5355 167.1668 0019655 316.2848  43.6794 14.59949808504447
JILIN-1 03              
1 41914U 17002B   26166.98725933  .00010807  00000+0  25909-3 0  9999
2 41914  97.1941 174.0885 0006671 158.2253 201.9279 15.41551804521676
CARTOSAT-2D             
1 41948U 17008A   26166.97287431  .00003879  00000+0  18684-3 0  9990
2 41948  97.4109 226.3018 0003880 233.8650 126.2226 15.19326376517395
CARTOSAT-2E             
1 42767U 17036C   26166.99072978  .00002499  00000+0  12180-3 0  9993
2 42767  97.4277 226.8127 0002593 327.0080  33.0992 15.19243665497964
IRIDIUM 113             
1 42803U 17039A   26166.91475926  .00000025  00000+0  19461-5 0  9993
2 42803  86.3968 322.7106 0002271  89.3085 270.8371 14.34217758471007
NORSAT 2                
1 42828U 17042D   26166.97568722  .00008675  00000+0  38332-3 0  9992
2 42828  97.4032 340.4350 0010534  61.0435 299.1856 15.21907004487550
TECHNOSAT               
1 42829U 17042E   26166.91948933  .00003548  00000+0  25358-3 0  9991
2 42829  97.4279 324.6250 0018863  98.2176 262.1191 15.04953653486513
FLYING LAPTOP           
1 42831U 17042G   26166.98568359  .00002966  00000+0  23513-3 0  9995
2 42831  97.4677 322.5642 0019509 125.5678 234.7368 15.01139202486276
WNISAT 1R               
1 42835U 17042L   26166.89256811  .00001964  00000+0  15508-3 0  9998
2 42835  97.4834 323.0608 0011014 151.4771 208.7059 15.01758217486314
LEMUR-2-GREENBERG       
1 42837U 17042N   26166.97614415  .00013742  00000+0  45634-3 0  9997
2 42837  97.3811 347.6061 0008653  18.3296 341.8256 15.31296263488202
LEMUR-2-FURIAUS         
1 42840U 17042R   26166.44594397  .00014384  00000+0  49395-3 0  9990
2 42840  97.3762 345.0379 0008237  74.3818 285.8331 15.30202181487941
CORVUS BC2              
1 42846U 17042X   26166.93268699  .00003653  00000+0  25223-3 0  9994
2 42846  97.4059 328.3309 0014251 114.4663 245.8053 15.06289068486871
CORVUS BC1              
1 42847U 17042Y   26166.72817034  .00003436  00000+0  23648-3 0  9993
2 42847  97.4094 328.9476 0013258  93.6301 266.6443 15.06458268486879
VRSS-2                  
1 42954U 17060A   26166.97112499  .00000266  00000+0  40515-4 0  9993
2 42954  97.6513 204.7525 0018592 102.3924 257.9372 14.81191150468271
MOHAMMED VI-A           
1 43005U 17070A   26166.99154323  .00000429  00000+0  67961-4 0  9991
2 43005  97.9565 239.3390 0001386  72.9968 287.1394 14.77067838463809
FENGYUN 3D              
1 43010U 17072A   26166.94928828 -.00000311  00000+0 -12536-3 0  9992
2 43010  99.0119 141.3491 0002579  64.9217 295.2226 14.19738276444811
NOAA 20 (JPSS-1)        
1 43013U 17073A   26166.94403852  .00000055  00000+0  46943-4 0  9994
2 43013  98.7771 106.4177 0000293  87.9774 272.1435 14.19511549444291
MAKERSAT 0              
1 43016U 17073D   26166.93898980  .00014741  00000+0  40195-3 0  9995
2 43016  97.4626  49.4485 0105137 277.5028  81.4279 15.32063984466279
RADFXSAT (FOX-1B)       
1 43017U 17073E   26166.88504000  .00006860  00000+0  30071-3 0  9992
2 43017  97.4704  34.1266 0149732 333.8046  25.5663 15.12702025465190
JILIN-1 04              
1 43022U 17074A   26166.91847006  .00010834  00000+0  25264-3 0  9993
2 43022  97.4865 276.4966 0004065 182.6950 177.4276 15.42415384474071
JILIN-1 05              
1 43023U 17074B   26166.94692315  .00006967  00000+0  21518-3 0  9998
2 43023  97.4871 273.0839 0004261 219.2122 140.8812 15.33859990473813
JILIN-1 06              
1 43024U 17074C   26166.91835898  .00005079  00000+0  15842-3 0  9997
2 43024  97.4796 270.0663 0005599 236.1757 123.8953 15.33680734473645
IRIDIUM 116             
1 43072U 17083C   26166.88938788  .00000034  00000+0  50232-5 0  9998
2 43072  86.3962 322.5440 0001944  98.1053 262.0364 14.34217875443989
IRIDIUM 130             
1 43073U 17083D   26166.92744258  .00000077  00000+0  20435-4 0  9999
2 43073  86.3970 322.8033 0001951  91.8834 268.2586 14.34218187443931
LKW-2                   
1 43080U 17084A   26166.97956022  .00005765  00000+0  22465-3 0  9990
2 43080  97.1191 206.8313 0000985 181.2462 178.8775 15.26326363471501
SUPERVIEW-1 03          
1 43099U 18002A   26166.93058662  .00014469  00000+0  35989-3 0  9996
2 43099  97.3141 251.7696 0047087 184.0281 176.0593 15.39217218468174
CARTOSAT-2F             
1 43111U 18004A   26166.95701101  .00003206  00000+0  15556-3 0  9993
2 43111  97.4793 226.6034 0000522 220.0700 140.0496 15.19206495467142
LKW-3                   
1 43146U 18006A   26166.94581831  .00011659  00000+0  34318-3 0  9996
2 43146  97.6601 327.4713 0002291 331.4555  28.6562 15.35232321468527
