OBJECT_NAME,OBJECT_ID,EPOCH,MEAN_MOTION,ECCENTRICITY,INCLINATION,RA_OF_ASC_NODE,ARG_OF_PERICENTER,MEAN_ANOMALY,EPHEMERIS_TYPE,CLASSIFICATION_TYPE,NORAD_CAT_ID,ELEMENT_SET_NO,REV_AT_EPOCH,BSTAR,MEAN_MOTION_DOT,MEAN_MOTION_DDOT
TANSAT,2016-081A,2026-06-15T22:42:41.496768,14.59949808,.0019655,98.5355,167.1668,316.2848,43.6794,0,U,41898,999,50444,.42966998E-4,.156E-5,0
JILIN-1 03,2017-002B,2026-06-15T23:41:39.206112,15.41551804,.00066714,97.1941,174.0885,158.2253,201.9279,0,U,41914,999,52167,.25909455E-3,.10807E-3,0
CARTOSAT-2D,2017-008A,2026-06-15T23:20:56.340384,15.19326376,.00038809,97.4109,226.3018,233.8650,126.2226,0,U,41948,999,51739,.18683648E-3,.3879E-4,0
CARTOSAT-2E,2017-036C,2026-06-15T23:46:39.052992,15.19243665,.00025939,97.4277,226.8127,327.0080,33.0992,0,U,42767,999,49796,.12180214E-3,.2499E-4,0
IRIDIUM 113,2017-039A,2026-06-15T21:57:15.200064,14.34217758,.00022714,86.3968,322.7106,89.3085,270.8371,0,U,42803,999,47100,.194605E-5,.25E-6,0
NORSAT 2,2017-042D,2026-06-15T23:24:59.375808,15.21907004,.00105346,97.4032,340.4350,61.0435,299.1856,0,U,42828,999,48755,.38332352E-3,.8675E-4,0
TECHNOSAT,2017-042E,2026-06-15T22:04:03.878112,15.04953653,.0018863,97.4279,324.6250,98.2176,262.1191,0,U,42829,999,48651,.25358469E-3,.3548E-4,0
FLYING LAPTOP,2017-042G,2026-06-15T23:39:23.062176,15.01139202,.00195094,97.4677,322.5642,125.5678,234.7368,0,U,42831,999,48627,.23513179E-3,.2966E-4,0
WNISAT 1R,2017-042L,2026-06-15T21:25:17.884704,15.01758217,.00110148,97.4834,323.0608,151.4771,208.7059,0,U,42835,999,48631,.15508344E-3,.1964E-4,0
LEMUR-2-GREENBERG,2017-042N,2026-06-15T23:25:38.854560,15.31296263,.00086537,97.3811,347.6061,18.3296,341.8256,0,U,42837,999,48820,.45633976E-3,.13742E-3,0
LEMUR-2-FURIAUS,2017-042R,2026-06-15T10:42:09.559008,15.30202181,.00082377,97.3762,345.0379,74.3818,285.8331,0,U,42840,999,48794,.4939494E-3,.14384E-3,0
CORVUS BC2,2017-042X,2026-06-15T22:23:04.155936,15.06289068,.00142515,97.4059,328.3309,114.4663,245.8053,0,U,42846,999,48687,.25222566E-3,.3653E-4,0
CORVUS BC1,2017-042Y,2026-06-15T17:28:33.917376,15.06458268,.0013258,97.4094,328.9476,93.6301,266.6443,0,U,42847,999,48687,.23647744E-3,.3436E-4,0
VRSS-2,2017-060A,2026-06-15T23:18:25.199136,14.81191150,.00185924,97.6513,204.7525,102.3924,257.9372,0,U,42954,999,46827,.4051493E-4,.266E-5,0
MOHAMMED VI-A,2017-070A,2026-06-15T23:47:49.335072,14.77067838,.00013863,97.9565,239.3390,72.9968,287.1394,0,U,43005,999,46380,.67960746E-4,.429E-5,0
FENGYUN 3D,2017-072A,2026-06-15T22:46:58.507392,14.19738276,.00025797,99.0119,141.3491,64.9217,295.2226,0,U,43010,999,44481,-.12535819E-3,-.311E-5,0
NOAA 20 (JPSS-1),2017-073A,2026-06-15T22:39:24.928128,14.19511549,.00002931,98.7771,106.4177,87.9774,272.1435,0,U,43013,999,44429,.46943231E-4,.55E-6,0
MAKERSAT 0,2017-073D,2026-06-15T22:32:08.718720,15.32063984,.01051376,97.4626,49.4485,277.5028,81.4279,0,U,43016,999,46627,.40194966E-3,.14741E-3,0
RADFXSAT (FOX-1B),2017-073E,2026-06-15T21:14:27.456000,15.12702025,.0149732,97.4704,34.1266,333.8046,25.5663,0,U,43017,999,46519,.30071287E-3,.686E-4,0
JILIN-1 04,2017-074A,2026-06-15T22:02:35.813184,15.42415384,.00040655,97.4865,276.4966,182.6950,177.4276,0,U,43022,999,47407,.25263676E-3,.10834E-3,0
JILIN-1 05,2017-074B,2026-06-15T22:43:34.160160,15.33859990,.00042615,97.4871,273.0839,219.2122,140.8812,0,U,43023,999,47381,.21518308E-3,.6967E-4,0
JILIN-1 06,2017-074C,2026-06-15T22:02:26.215872,15.33680734,.00055992,97.4796,270.0663,236.1757,123.8953,0,U,43024,999,47364,.15842371E-3,.5079E-4,0
IRIDIUM 116,2017-083C,2026-06-15T21:20:43.112832,14.34217875,.00019444,86.3962,322.5440,98.1053,262.0364,0,U,43072,999,44398,.5023206E-5,.34E-6,0
IRIDIUM 130,2017-083D,2026-06-15T22:15:31.038912,14.34218187,.00019513,86.3970,322.8033,91.8834,268.2586,0,U,43073,999,44393,.20435349E-4,.77E-6,0
LKW-2,2017-084A,2026-06-15T23:30:34.003008,15.26326363,.00009856,97.1191,206.8313,181.2462,178.8775,0,U,43080,999,47150,.22464969E-3,.5765E-4,0
SUPERVIEW-1 03,2018-002A,2026-06-15T22:20:02.683968,15.39217218,.00470879,97.3141,251.7696,184.0281,176.0593,0,U,43099,999,46817,.35988902E-3,.14469E-3,0
CARTOSAT-2F,2018-004A,2026-06-15T22:58:05.751264,15.19206495,.00005226,97.4793,226.6034,220.0700,140.0496,0,U,43111,999,46714,.15556053E-3,.3206E-4,0
LKW-3,2018-006A,2026-06-15T22:41:58.701984,15.35232321,.00022915,97.6601,327.4713,331.4555,28.6562,0,U,43146,999,46852,.34317621E-3,.11659E-3,0
